GALAXY 25 (G-25)        
1 24812C 97026A   23207.96030093 -.00000258  00000-0  00000-0 0  2073
2 24812   4.7047  79.5432 0012743  24.9616 302.3074  0.99039912    18
GALAXY 25 (G-25)        
1 24812C 97026A   23212.00000000 -.00000182  00000-0  00000-0 0  2121
2 24812   4.7167  79.5735 0012664  27.2134 300.3261  0.99036539    18
INTELSAT 5 (IS-5)   [PM]
1 24916C 97046A   23199.42708333  .00000034  00000-0  00000-0 0  1991
2 24916   8.0745  58.1716 0001141 215.7827 341.8825  1.00276001    14
INTELSAT 5 (IS-5)       
1 24916C 97046A   23207.96030093  .00000034  00000-0  00000-0 0  2071
2 24916   8.0932  58.0677 0005058  78.8789 319.2670  1.00276088    15
INTELSAT 5 (IS-5)       
1 24916C 97046A   23212.00000000  .00000034  00000-0  00000-0 0  2123
2 24916   8.1014  58.0800 0004409  71.4509 344.9670  1.00272970    14
GALAXY 11 (G-11)    [PM]
1 26038C 99071A   23206.91666667 -.00000059  00000-0  00000-0 0  2061
2 26038   4.0189  83.1831 0002900  80.4911  14.7231  1.00095215    13
GALAXY 11 (G-11)        
1 26038C 99071A   23208.00000000 -.00000055  00000-0  00000-0 0  2084
2 26038   4.0217  83.1304 0003041  95.1301  30.5290  1.00096771    12
GALAXY 11 (G-11)        
1 26038C 99071A   23212.00000000 -.00000040  00000-0  00000-0 0  2128
2 26038   4.0351  83.1196 0003258  89.8744  37.2040  1.00090067    10
INTELSAT 9 (IS-9)       
1 26451C 00043A   23207.96030093 -.00000191  00000-0  00000-0 0  2073
2 26451   8.0780  58.2510 0001347 292.1616 249.6501  1.00277101    13
INTELSAT 9 (IS-9)   [PM]
1 26451C 00043A   23208.63570602 -.00000191  00000-0  00000-0 0  2084
2 26451   8.0794  58.2566 0004124  37.5508  28.0914  1.00274325    18
INTELSAT 9 (IS-9)       
1 26451C 00043A   23212.00000000 -.00000191  00000-0  00000-0 0  2125
2 26451   8.0859  58.2536 0000725 250.1171 309.9744  1.00275430    19
INTELSAT 1R (IS-1R)     
1 26608C 00072A   23208.00000000 -.00000047  00000-0  00000-0 0  2081
2 26608   5.4790  75.8477 0001789  81.5215 304.1450  1.00274028    16
INTELSAT 1R (IS-1R)     
1 26608C 00072A   23212.00000000 -.00000047  00000-0  00000-0 0  2121
2 26608   5.4896  75.8865 0001767  85.9075 303.6691  1.00272674    18
INTELSAT 10 (IS-10)     
1 26766C 01019A   23207.96030093  .00000127  00000-0  00000-0 0  2074
2 26766   6.5382  69.7339 0004616  42.9280 355.2018  1.00274904    14
INTELSAT 10 (IS-10)     
1 26766C 01019A   23212.00000000  .00000127  00000-0  00000-0 0  2126
2 26766   6.5485  69.7516 0004534  36.5995  19.8056  1.00273057    19
INTELSAT 10 (IS-10) [PM]
1 26766C 01019A   23214.40685185  .00000127  00000-0  00000-0 0  2147
2 26766   6.5520  69.7279 0001191  16.7337 188.5279  1.00272367    15
INTELSAT 901            
1 26824C 01024A   23207.96030093 -.00000144  00000-0  00000-0 0  2075
2 26824   0.0504 259.4121 0001418 240.8298 122.3389  1.00270495    11
INTELSAT 901            
1 26824C 01024A   23212.00000000 -.00000112  00000-0  00000-0 0  2122
2 26824   0.0183 290.8371 0000927 140.0148 210.0225  1.00263093    19
INTELSAT 902            
1 26900C 01039A   23207.96030093 -.00000192  00000-0  00000-0 0  2079
2 26900   3.4250  84.4122 0002394  26.3652 129.2233  1.00272198    19
INTELSAT 902        [PM]
1 26900C 01039A   23211.88281250 -.00000192  00000-0  00000-0 0  2113
2 26900   3.4374  84.4513 0002692  31.4748 100.0410  1.00270765    16
INTELSAT 902            
1 26900C 01039A   23212.00000000 -.00000192  00000-0  00000-0 0  2121
2 26900   3.4379  84.4526 0002249  30.4591 143.3519  1.00272078    17
INTELSAT 904            
1 27380C 02007A   23207.96030093 -.00000123  00000-0  00000-0 0  2072
2 27380   4.2502  81.5129 0002468  32.2080 146.8735  1.00272886    15
INTELSAT 904            
1 27380C 02007A   23212.00000000 -.00000123  00000-0  00000-0 0  2124
2 27380   4.2627  81.5412 0002462  43.2989 154.0158  1.00270894    19
INTELSAT 904        [PM]
1 27380C 02007A   23213.85318287 -.00000123  00000-0  00000-0 0  2138
2 27380   4.2651  81.5379 0002890  42.7056 103.5815  1.00270850    13
INTELSAT 905            
1 27438C 02027A   23207.96030093 -.00000094  00000-0  00000-0 0  2075
2 27438   4.0737  82.2014 0002357  23.8895 159.4791  1.00274442    17
INTELSAT 905        [PM]
1 27438C 02027A   23209.73729167 -.00000094  00000-0  00000-0 0  2091
2 27438   4.0800  82.2026 0003440  29.6325  75.2242  1.00271227    11
INTELSAT 905            
1 27438C 02027A   23212.00000000 -.00000094  00000-0  00000-0 0  2127
2 27438   4.0864  82.2331 0002318  36.1555 165.4674  1.00272569    12
GALAXY 3C (G-3C)        
1 27445C 02030A   23208.00000000 -.00000062  00000-0  00000-0 0  2084
2 27445   0.9930  90.1076 0001941 102.0587  17.3975  1.00272292    14
GALAXY 3C (G-3C)        
1 27445C 02030A   23212.00000000 -.00000062  00000-0  00000-0 0  2124
2 27445   1.0072  90.3336 0001988 102.3742  20.8044  1.00270863    19
INTELSAT 906        [PM]
1 27513C 02041A   23200.50138889  .00000105  00000-0  00000-0 0  2005
2 27513   3.1240 265.5033 0003479  17.6235 258.5493  1.00269259    12
INTELSAT 906            
1 27513C 02041A   23207.96030093  .00000105  00000-0  00000-0 0  2077
2 27513   3.0966  85.7531 0003614  24.3819 244.0939  1.00271864    15
INTELSAT 906            
1 27513C 02041A   23212.00000000  .00000105  00000-0  00000-0 0  2129
2 27513   3.1096  85.8075 0003680  30.6485 256.0537  1.00271253    15
GALAXY 12 (G-12)        
1 27715C 03013B   23207.96030093  .00000187  00000-0  00000-0 0  2071
2 27715   4.2841  81.2234 0002824  25.4288  46.3433  1.00270679    14
GALAXY 12 (G-12)        
1 27715C 03013B   23212.00000000  .00000187  00000-0  00000-0 0  2123
2 27715   4.2964  81.2591 0002831  26.4522  63.5568  1.00269754    18
GALAXY 12 (G-12)    [PM]
1 27715C 03013B   23213.62305556  .00000187  00000-0  00000-0 0  2137
2 27715   4.2989  81.2612 0002216  61.7342 254.1712  1.00268705    12
GALAXY 23 (G-23)        
1 27854C 03034A   23207.96030093  .00000103  00000-0  00000-0 0  2076
2 27854   0.4599  93.5246 0003186  33.9577  41.7083  1.00272299    12
GALAXY 23 (G-23)    [PM]
1 27854C 03034A   23209.77684028  .00000103  00000-0  00000-0 0  2092
2 27854   0.4653  93.6801 0003230  35.0345 336.2183  1.00270828    16
GALAXY 23 (G-23)        
1 27854C 03034A   23212.00000000  .00000103  00000-0  00000-0 0  2128
2 27854   0.4726  94.1751 0003247  37.2227  56.0587  1.00270056    16
GALAXY 13           [PM]
1 27954C 03044A   23205.86949074  .00000178  00000-0  00000-0 0  2053
2 27954   0.0369 251.0684 0002218 236.5687   0.6944  1.00270439    13
GALAXY 13               
1 27954C 03044A   23207.96030093  .00000140  00000-0  00000-0 0  2079
2 27954   0.0315 272.3099 0002345 217.9306  32.8371  1.00271219    10
GALAXY 13               
1 27954C 03044A   23212.00000000  .00000135  00000-0  00000-0 0  2125
2 27954   0.0532 249.0690 0002376 247.6334  44.6477  1.00271902    11
INTELSAT 10-02          
1 28358C 04022A   23208.00000000  .00000100  00000-0  00000-0 0  2083
2 28358   0.0279 276.9613 0001064 213.5033 172.9659  1.00269524    17
INTELSAT 10-02          
1 28358C 04022A   23212.00000000  .00000081  00000-0  00000-0 0  2121
2 28358   0.0379 248.0987 0001181 242.4409 176.8348  1.00268656    13
GALAXY 28 (G-28)        
1 28702C 05022A   23208.00000000 -.00000095  00000-0  00000-0 0  2081
2 28702   0.5629  91.1585 0001751  97.5664  26.6843  1.00272330    11
GALAXY 28 (G-28)    [PM]
1 28702C 05022A   23211.95069444 -.00000095  00000-0  00000-0 0  2110
2 28702   0.5748  73.1223 0001313 103.0405  25.3980  1.00271307    13
GALAXY 28 (G-28)        
1 28702C 05022A   23212.00000000 -.00000095  00000-0  00000-0 0  2121
2 28702   0.5768  91.5793 0001648 100.1161  27.6571  1.00275946    13
GALAXY 14 (G-14)    [PM]
1 28790C 05030A   23203.59722222  .00000245  00000-0  00000-0 0  2034
2 28790   2.2744  87.8220 0001601   9.6132  90.5375  1.00269287    18
GALAXY 14 (G-14)        
1 28790C 05030A   23207.96030093  .00000245  00000-0  00000-0 0  2071
2 28790   2.2873  87.6622 0001376  26.1898 209.1154  1.00272541    17
GALAXY 14 (G-14)        
1 28790C 05030A   23212.00000000  .00000245  00000-0  00000-0 0  2123
2 28790   2.3009  87.7505 0001443  39.0660 214.4427  1.00273048    10
GALAXY 14 (G-14)    [PM]
1 28790C 05030A   23213.25486111  .00000245  00000-0  00000-0 0  2133
2 28790   2.3030  87.7644 0001977  37.9641 308.5242  1.00267889    12
GALAXY 16 (G-16)        
1 29236C 06023A   23207.96030093 -.00000039  00000-0  00000-0 0  2072
2 29236   0.0584 260.4937 0002994 225.2061  65.3954  1.00271910    18
GALAXY 16 (G-16)    [PM]
1 29236C 06023A   23211.68094907 -.00000014  00000-0  00000-0 0  2118
2 29236   0.0650 255.6182 0003186 236.1559 322.4206  1.00269387    19
GALAXY 16 (G-16)        
1 29236C 06023A   23212.00000000 -.00000041  00000-0  00000-0 0  2127
2 29236   0.0642 255.2942 0003158 236.7488  77.3224  1.00268906    18
GALAXY 17 (G-17)        
1 31307C 07016B   23207.96030093 -.00000116  00000-0  00000-0 0  2073
2 31307   0.2803  93.3413 0002782  62.0616  49.6751  1.00272875    17
GALAXY 17 (G-17)        
1 31307C 07016B   23212.00000000 -.00000116  00000-0  00000-0 0  2125
2 31307   0.2941  94.1515 0003038  65.7381  63.4561  1.00270097    13
GALAXY 17 (G-17)    [PM]
1 31307C 07016B   23212.96885417 -.00000116  00000-0  00000-0 0  2123
2 31307   0.2959  94.4419 0003001  65.3263  53.3168  1.00271807    14
INTELSAT 11 (IS-11)     
1 32253C 07044B   23207.96030093 -.00000178  00000-0  00000-0 0  2073
2 32253   0.8169  91.6373 0003410  37.5839 117.8645  1.00272736    14
INTELSAT 11 (IS-11) [PM]
1 32253C 07044B   23208.34843750 -.00000178  00000-0  00000-0 0  2089
2 32253   0.8184  91.6297 0003390  38.8305 256.7389  1.00272708    12
INTELSAT 11 (IS-11)     
1 32253C 07044B   23212.00000000 -.00000178  00000-0  00000-0 0  2125
2 32253   0.8312  91.9112 0003491  41.8493 131.5982  1.00270039    12
